{"type": "FeatureCollection", "features": [ {"type": "Feature", "properties": {"norad_id": 40315, "name": "COSMOS 2501 (702K)", "group": "gnss", "lat": -52.68249155900951, "lon": 57.70443610187997, "alt_km": 19095.21605733602, "timestamp": "2025-12-05T19:30:25.808006+00:00", "meta": {"OBJECT_NAME": "COSMOS 2501 (702K)", "OBJECT_ID": "2014-075A", "EPOCH": "2025-12-04T02:08:01.213152", "MEAN_MOTION": 2.13101298, "ECCENTRICITY": 0.0020149, "INCLINATION": 63.6138, "RA_OF_ASC_NODE": 197.1248, "ARG_OF_PERICENTER": 204.6361, "MEAN_ANOMALY": 155.363, "EPHEMERIS_TYPE": 0, "CLASSIFICATION_TYPE": "U", "NORAD_CAT_ID": 40315, "ELEMENT_SET_NO": 999, "REV_AT_EPOCH": 8569, "BSTAR": 0, "MEAN_MOTION_DOT": 1.03e-06, "MEAN_MOTION_DDOT": 0}, "tle": {"line1": "1 40315U 14075A   25338.08890293  .00000103  00000+0  00000+0 0  9992", "line2": "2 40315  63.6138 197.1248 0020149 204.6361 155.3630  2.13101298 85690"}}, "geometry": {"type": "Point", "coordinates": [57.70443610187997, -52.68249155900951]}}, {"type": "Feature", "properties": {"norad_id": 40534, "name": "GPS BIIF-9  (PRN 26)", "group": "gnss", "lat": 24.369639736342823, "lon": 12.378265475981944, "alt_km": 20276.609098272307, "timestamp": "2025-12-05T19:30:25.808017+00:00", "meta": {"OBJECT_NAME": "GPS BIIF-9  (PRN 26)", "OBJECT_ID": "2015-013A", "EPOCH": "2025-12-04T14:41:18.695616", "MEAN_MOTION": 2.0056296, "ECCENTRICITY": 0.0106701, "INCLINATION": 53.1991, "RA_OF_ASC_NODE": 212.2269, "ARG_OF_PERICENTER": 38.2819, "MEAN_ANOMALY": 322.5704, "EPHEMERIS_TYPE": 0, "CLASSIFICATION_TYPE": "U", "NORAD_CAT_ID": 40534, "ELEMENT_SET_NO": 999, "REV_AT_EPOCH": 7792, "BSTAR": 0, "MEAN_MOTION_DOT": 7.2e-07, "MEAN_MOTION_DDOT": 0}, "tle": {"line1": "1 40534U 15013A   25338.61202194  .00000072  00000+0  00000+0 0  9999", "line2": "2 40534  53.1991 212.2269 0106701  38.2819 322.5704  2.00562960 77924"}}, "geometry": {"type": "Point", "coordinates": [12.378265475981944, 24.369639736342823]}}, {"type": "Feature", "properties": {"norad_id": 40544, "name": "GSAT0203 (GALILEO 7)", "group": "gnss", "lat": 53.57424629381795, "lon": 104.50850107757107, "alt_km": 23234.241540317875, "timestamp": "2025-12-05T19:30:25.808028+00:00", "meta": {"OBJECT_NAME": "GSAT0203 (GALILEO 7)", "OBJECT_ID": "2015-017A", "EPOCH": "2025-12-03T07:02:53.463840", "MEAN_MOTION": 1.70475768, "ECCENTRICITY": 0.00065008, "INCLINATION": 56.8485, "RA_OF_ASC_NODE": 346.9379, "ARG_OF_PERICENTER": 269.0414, "MEAN_ANOMALY": 90.9202, "EPHEMERIS_TYPE": 0, "CLASSIFICATION_TYPE": "U", "NORAD_CAT_ID": 40544, "ELEMENT_SET_NO": 999, "REV_AT_EPOCH": 6586, "BSTAR": 0, "MEAN_MOTION_DOT": -6.7e-07, "MEAN_MOTION_DDOT": 0}, "tle": {"line1": "1 40544U 15017A   25337.29367435 -.00000067  00000+0  00000+0 0  9992", "line2": "2 40544  56.8485 346.9379 0006500 269.0414  90.9202  1.70475768 65865"}}, "geometry": {"type": "Point", "coordinates": [104.50850107757107, 53.57424629381795]}}, {"type": "Feature", "properties": {"norad_id": 40545, "name": "GSAT0204 (GALILEO 8)", "group": "gnss", "lat": -40.39519763500921, "lon": -46.90349527438449, "alt_km": 23214.45278579822, "timestamp": "2025-12-05T19:30:25.808039+00:00", "meta": {"OBJECT_NAME": "GSAT0204 (GALILEO 8)", "OBJECT_ID": "2015-017B", "EPOCH": "2025-12-04T03:15:24.834240", "MEAN_MOTION": 1.70475395, "ECCENTRICITY": 0.00062587, "INCLINATION": 56.8537, "RA_OF_ASC_NODE": 346.9325, "ARG_OF_PERICENTER": 261.1307, "MEAN_ANOMALY": 98.8308, "EPHEMERIS_TYPE": 0, "CLASSIFICATION_TYPE": "U", "NORAD_CAT_ID": 40545, "ELEMENT_SET_NO": 999, "REV_AT_EPOCH": 2892, "BSTAR": 0, "MEAN_MOTION_DOT": -7.1e-07, "MEAN_MOTION_DDOT": 0}, "tle": {"line1": "1 40545U 15017B   25338.13570410 -.00000071  00000+0  00000+0 0  9991", "line2": "2 40545  56.8537 346.9325 0006258 261.1307  98.8308  1.70475395 28925"}}, "geometry": {"type": "Point", "coordinates": [-46.90349527438449, -40.39519763500921]}}, {"type": "Feature", "properties": {"norad_id": 40730, "name": "GPS BIIF-10 (PRN 08)", "group": "gnss", "lat": 24.832211351089757, "lon": -65.43373959891157, "alt_km": 19886.810328647152, "timestamp": "2025-12-05T19:30:25.808050+00:00", "meta": {"OBJECT_NAME": "GPS BIIF-10 (PRN 08)", "OBJECT_ID": "2015-033A", "EPOCH": "2025-12-04T06:35:41.280576", "MEAN_MOTION": 2.0056586, "ECCENTRICITY": 0.01104506, "INCLINATION": 54.1381, "RA_OF_ASC_NODE": 275.1212, "ARG_OF_PERICENTER": 26.6019, "MEAN_ANOMALY": 333.9621, "EPHEMERIS_TYPE": 0, "CLASSIFICATION_TYPE": "U", "NORAD_CAT_ID": 40730, "ELEMENT_SET_NO": 999, "REV_AT_EPOCH": 7608, "BSTAR": 0, "MEAN_MOTION_DOT": -3.2e-07, "MEAN_MOTION_DDOT": 0}, "tle": {"line1": "1 40730U 15033A   25338.27478334 -.00000032  00000+0  00000+0 0  9999", "line2": "2 40730  54.1381 275.1212 0110450  26.6019 333.9621  2.00565860 76083"}}, "geometry": {"type": "Point", "coordinates": [-65.43373959891157, 24.832211351089757]}}, {"type": "Feature", "properties": {"norad_id": 40748, "name": "BEIDOU-3S M2S (C58)", "group": "gnss", "lat": -32.03399396407911, "lon": 154.6191755825324, "alt_km": 21508.808484823425, "timestamp": "2025-12-05T19:30:25.808063+00:00", "meta": {"OBJECT_NAME": "BEIDOU-3S M2S (C58)", "OBJECT_ID": "2015-037A", "EPOCH": "2025-12-04T09:50:19.277376", "MEAN_MOTION": 1.86229056, "ECCENTRICITY": 0.00124004, "INCLINATION": 55.0462, "RA_OF_ASC_NODE": 308.7497, "ARG_OF_PERICENTER": 267.6151, "MEAN_ANOMALY": 92.2259, "EPHEMERIS_TYPE": 0, "CLASSIFICATION_TYPE": "U", "NORAD_CAT_ID": 40748, "ELEMENT_SET_NO": 999, "REV_AT_EPOCH": 7049, "BSTAR": 0, "MEAN_MOTION_DOT": -6.8e-07, "MEAN_MOTION_DDOT": 0}, "tle": {"line1": "1 40748U 15037A   25338.40994534 -.00000068  00000+0  00000+0 0  9991", "line2": "2 40748  55.0462 308.7497 0012400 267.6151  92.2259  1.86229056 70498"}}, "geometry": {"type": "Point", "coordinates": [154.6191755825324, -32.03399396407911]}}, {"type": "Feature", "properties": {"norad_id": 40749, "name": "BEIDOU-3S M1S (C57)", "group": "gnss", "lat": 48.29068197684701, "lon": 0.3440645920729843, "alt_km": 21516.818490610698, "timestamp": "2025-12-05T19:30:25.808077+00:00", "meta": {"OBJECT_NAME": "BEIDOU-3S M1S (C57)", "OBJECT_ID": "2015-037B", "EPOCH": "2025-12-01T22:57:46.412352", "MEAN_MOTION": 1.86253762, "ECCENTRICITY": 0.0003321, "INCLINATION": 55.0451, "RA_OF_ASC_NODE": 308.8236, "ARG_OF_PERICENTER": 355.9906, "MEAN_ANOMALY": 3.9975, "EPHEMERIS_TYPE": 0, "CLASSIFICATION_TYPE": "U", "NORAD_CAT_ID": 40749, "ELEMENT_SET_NO": 999, "REV_AT_EPOCH": 7045, "BSTAR": 0, "MEAN_MOTION_DOT": -6e-07, "MEAN_MOTION_DDOT": 0}, "tle": {"line1": "1 40749U 15037B   25335.95678718 -.00000060  00000+0  00000+0 0  9994", "line2": "2 40749  55.0451 308.8236 0003321 355.9906   3.9975  1.86253762 70451"}}, "geometry": {"type": "Point", "coordinates": [0.3440645920729843, 48.29068197684701]}}, {"type": "Feature", "properties": {"norad_id": 40889, "name": "GSAT0205 (GALILEO 9)", "group": "gnss", "lat": 54.993940570764984, "lon": -40.48879940077236, "alt_km": 23205.446102326707, "timestamp": "2025-12-05T19:30:25.808089+00:00", "meta": {"OBJECT_NAME": "GSAT0205 (GALILEO 9)", "OBJECT_ID": "2015-045A", "EPOCH": "2025-12-03T21:42:02.149056", "MEAN_MOTION": 1.70472902, "ECCENTRICITY": 0.0005859, "INCLINATION": 55.0066, "RA_OF_ASC_NODE": 227.0025, "ARG_OF_PERICENTER": 38.6315, "MEAN_ANOMALY": 321.5029, "EPHEMERIS_TYPE": 0, "CLASSIFICATION_TYPE": "U", "NORAD_CAT_ID": 40889, "ELEMENT_SET_NO": 999, "REV_AT_EPOCH": 6368, "BSTAR": 0, "MEAN_MOTION_DOT": 4e-07, "MEAN_MOTION_DDOT": 0}, "tle": {"line1": "1 40889U 15045A   25337.90419154  .00000040  00000+0  00000+0 0  9999", "line2": "2 40889  55.0066 227.0025 0005859  38.6315 321.5029  1.70472902 63681"}}, "geometry": {"type": "Point", "coordinates": [-40.48879940077236, 54.993940570764984]}}, {"type": "Feature", "properties": {"norad_id": 40890, "name": "GSAT0206 (GALILEO 10)", "group": "gnss", "lat": -34.74356223510472, "lon": -162.07845522948003, "alt_km": 23223.827203028388, "timestamp": "2025-12-05T19:30:25.808100+00:00", "meta": {"OBJECT_NAME": "GSAT0206 (GALILEO 10)", "OBJECT_ID": "2015-045B", "EPOCH": "2025-12-01T18:40:58.746144", "MEAN_MOTION": 1.70473031, "ECCENTRICITY": 0.0003438, "INCLINATION": 55.0064, "RA_OF_ASC_NODE": 227.0564, "ARG_OF_PERICENTER": 30.2471, "MEAN_ANOMALY": 329.8532, "EPHEMERIS_TYPE": 0, "CLASSIFICATION_TYPE": "U", "NORAD_CAT_ID": 40890, "ELEMENT_SET_NO": 999, "REV_AT_EPOCH": 6367, "BSTAR": 0, "MEAN_MOTION_DOT": 3.4e-07, "MEAN_MOTION_DDOT": 0}, "tle": {"line1": "1 40890U 15045B   25335.77845771  .00000034  00000+0  00000+0 0  9995", "line2": "2 40890  55.0064 227.0564 0003438  30.2471 329.8532  1.70473031 63674"}}, "geometry": {"type": "Point", "coordinates": [-162.07845522948003, -34.74356223510472]}}, {"type": "Feature", "properties": {"norad_id": 40938, "name": "BEIDOU-3S IGSO-2S (C56)", "group": "gnss", "lat": -17.039764001133946, "lon": 96.20180395579177, "alt_km": 35538.4315314102, "timestamp": "2025-12-05T19:30:25.808112+00:00", "meta": {"OBJECT_NAME": "BEIDOU-3S IGSO-2S (C56)", "OBJECT_ID": "2015-053A", "EPOCH": "2025-12-03T17:17:32.013024", "MEAN_MOTION": 1.0027148, "ECCENTRICITY": 0.00611089, "INCLINATION": 49.5266, "RA_OF_ASC_NODE": 261.1136, "ARG_OF_PERICENTER": 188.632, "MEAN_ANOMALY": 338.5579, "EPHEMERIS_TYPE": 0, "CLASSIFICATION_TYPE": "U", "NORAD_CAT_ID": 40938, "ELEMENT_SET_NO": 999, "REV_AT_EPOCH": 3739, "BSTAR": 0, "MEAN_MOTION_DOT": -1.53e-06, "MEAN_MOTION_DDOT": 0}, "tle": {"line1": "1 40938U 15053A   25337.72050941 -.00000153  00000+0  00000+0 0  9994", "line2": "2 40938  49.5266 261.1136 0061108 188.6320 338.5579  1.00271480 37397"}}, "geometry": {"type": "Point", "coordinates": [96.20180395579177, -17.039764001133946]}}]}